GLOBALSTAR M057         
1 25943U 99058A   24283.82510619 -.00000029  00000+0  58341-3 0  9990
2 25943  52.0014 338.7179 0002310 213.9800 146.0902 12.24801381136253
GLOBALSTAR M059         
1 25944U 99058B   24283.87756184 -.00000070  00000+0  20170-3 0  9990
2 25944  52.0005 164.3358 0000954  86.7819  23.9814 11.99966536543997
GLOBALSTAR M056         
1 25945U 99058C   24283.87314396 -.00000101  00000+0 -15475-3 0  9994
2 25945  51.9953 172.7328 0001750  52.9842  26.6604 12.04777293132453
GLOBALSTAR M031         
1 25946U 99058D   24283.69980905 -.00000166  00000+0 -77015-3 0  9999
2 25946  51.9957  80.5286 0001931  55.5050 317.6587 12.16018954134076
GLOBALSTAR M039         
1 25961U 99062A   24283.79533765  .00000017  00000+0  67240-3 0  9992
2 25961  51.9854 311.3520 0002866 148.9594 211.1442 12.62306159148591
GLOBALSTAR M034         
1 25962U 99062B   24283.79811235 -.00000049  00000+0  51341-3 0  9995
2 25962  51.9877 302.2521 0013899 289.0067 242.0655 11.79433845108840
GLOBALSTAR M029         
1 25963U 99062C   24283.68058941 -.00000050  00000+0  44671-3 0  9991
2 25963  51.9818  53.1163 0002244   3.2777   9.9999 11.99884237139051
GLOBALSTAR M061         
1 25964U 99062D   24283.87644735 -.00000040  00000+0  65934-3 0  9999
2 25964  51.9765 122.7608 0005418 206.7443 166.8126 11.76766857 91713
